IRIDIUM 144             
1 43249U 18030A   25168.69008588  .00000187  00000+0  59678-4 0  9994
2 43249  86.3959  82.7946 0002302  81.7318 278.4138 14.34216816377898
IRIDIUM 149             
1 43250U 18030B   25168.69642668  .00000104  00000+0  30103-4 0  9990
2 43250  86.3958  82.7633 0002239  81.2623 278.8827 14.34218211377918
IRIDIUM 157             
1 43251U 18030C   25168.50615299  .00000043  00000+0  82069-5 0  9992
2 43251  86.3950  82.8899 0002452  82.1434 278.0040 14.34217616377864
IRIDIUM 140             
1 43252U 18030D   25168.52517861  .00000085  00000+0  23204-4 0  9992
2 43252  86.3961  82.8936 0002384  81.0527 279.0939 14.34216858377926
IRIDIUM 145             
1 43253U 18030E   25168.86133609  .00000238  00000+0  77802-4 0  9997
2 43253  86.3960  82.7259 0002248  72.9589 287.1853 14.34217027377901
IRIDIUM 146             
1 43254U 18030F   25168.49346702  .00000349  00000+0  11765-3 0  9995
2 43254  86.3961  82.8930 0002341  74.4510 285.6944 14.34219002377869
IRIDIUM 148             
1 43255U 18030G   25168.88036369  .00000154  00000+0  47954-4 0  9998
2 43255  86.3962  82.7686 0002085  81.7382 278.4050 14.34216875377954
IRIDIUM 142             
1 43256U 18030H   25168.29050194  .00000005  00000+0 -54403-5 0  9990
2 43256  86.3959  82.9178 0002068  68.9171 291.2246 14.34217640377831
